NORAD_CAT_ID,OBJECT_NAME,OBJECT_TYPE,EPOCH,MEAN_MOTION,ECCENTRICITY,INCLINATION,RA_OF_ASC_NODE,ARG_OF_PERICENTER,MEAN_ANOMALY,BSTAR,MEAN_MOTION_DOT,MEAN_MOTION_DDOT,TLE_LINE0,TLE_LINE1,TLE_LINE2,SEMIMAJOR_AXIS,PERIOD,APOGEE,PERIGEE,DECAYED
53260.0,STARLINK-4136,PAYLOAD,2024-02-23 10:00:13,15.08849539,9.08e-05,53.2163,299.7835,93.7154,266.3942,0.00015366,2.159e-05,0.0,0 STARLINK-4136,1 53260U 22086U   24054.41681795  .00002159  00000-0  15366-3 0  9991,2 53260  53.2163 299.7835 0000908  93.7154 266.3942 15.08849539 88377,6917.851,95.437,540.344,539.088,0.0
53260.0,STARLINK-4136,PAYLOAD,2024-02-23 22:43:18,15.08845112,0.0001523,53.2155,297.4036,92.1221,267.9945,0.00025296,3.741e-05,0.0,0 STARLINK-4136,1 53260U 22086U   24054.94674004  .00003741  00000-0  25296-3 0  9995,2 53260  53.2155 297.4036 0001523  92.1221 267.9945 15.08845112 88630,6917.865,95.437,540.783,538.676,0.0
53260.0,STARLINK-4136,PAYLOAD,2024-02-24 01:54:04,15.08847184,0.0001563,53.2161,296.8083,95.112,265.005,0.00040475,6.161e-05,0.0,0 STARLINK-4136,1 53260U 22086U   24055.07921976  .00006161  00000-0  40475-3 0  9998,2 53260  53.2161 296.8083 0001563  95.1120 265.0050 15.08847184 88656,6917.858,95.437,540.805,538.642,0.0
53260.0,STARLINK-4136,PAYLOAD,2024-02-24 16:12:33,15.08833406,0.0001328,53.2165,294.1326,99.4319,260.6823,0.00036787,5.571e-05,0.0,0 STARLINK-4136,1 53260U 22086U   24055.67538630  .00005571  00000-0  36787-3 0  9990,2 53260  53.2165 294.1326 0001328  99.4319 260.6823 15.08833406 88568,6917.901,95.438,540.684,538.847,0.0
53260.0,STARLINK-4136,PAYLOAD,2024-02-25 14:27:57,15.08848061,0.0001277,53.2155,289.9699,94.0327,266.0811,0.00065773,0.00010198,0.0,0 STARLINK-4136,1 53260U 22086U   24056.60274823  .00010198  00000-0  65773-3 0  9993,2 53260  53.2155 289.9699 0001277  94.0327 266.0811 15.08848061 88880,6917.856,95.437,540.604,538.837,0.0
53260.0,STARLINK-4136,PAYLOAD,2024-02-25 19:14:06,15.0885523,0.0001205,53.2155,289.078,94.0076,266.1054,0.00090525,0.00014154,0.0,0 STARLINK-4136,1 53260U 22086U   24056.80146642  .00014154  00000-0  90525-3 0  9991,2 53260  53.2155 289.0780 0001205  94.0076 266.1054 15.08855230 88734,6917.834,95.437,540.532,538.865,0.0
53260.0,STARLINK-4136,PAYLOAD,2024-02-25 22:24:52,15.08860648,0.0001181,53.2156,288.4837,90.3707,269.742,0.00097964,0.00015346,0.0,0 STARLINK-4136,1 53260U 22086U   24056.93394451  .00015346  00000-0  97964-3 0  9996,2 53260  53.2156 288.4837 0001181  90.3707 269.7420 15.08860648 88931,6917.817,95.436,540.499,538.865,0.0
53260.0,STARLINK-4136,PAYLOAD,2024-02-26 14:18:44,15.0884752,0.0001308,53.2151,285.51,79.4338,280.6802,0.00024707,3.647e-05,0.0,0 STARLINK-4136,1 53260U 22086U   24057.59634457  .00003647  00000-0  24707-3 0  9998,2 53260  53.2151 285.5100 0001308  79.4338 280.6802 15.08847520 89038,6917.857,95.437,540.627,538.818,0.0
53260.0,STARLINK-4136,PAYLOAD,2024-02-26 19:04:53,15.08844125,0.0001114,53.2149,284.6176,87.1741,272.9379,0.0001795,2.57e-05,0.0,0 STARLINK-4136,1 53260U 22086U   24057.79506476  .00002570  00000-0  17950-3 0  9995,2 53260  53.2149 284.6176 0001114  87.1741 272.9379 15.08844125 88880,6917.868,95.437,540.503,538.962,0.0
53260.0,STARLINK-4136,PAYLOAD,2024-02-26 20:40:16,15.08842698,0.0001121,53.2148,284.3202,88.5667,271.5453,0.00015573,2.192e-05,0.0,0 STARLINK-4136,1 53260U 22086U   24057.86130496  .00002192  00000-0  15573-3 0  9997,2 53260  53.2148 284.3202 0001121  88.5667 271.5453 15.08842698 89079,6917.872,95.437,540.513,538.962,0.0
53260.0,STARLINK-4136,PAYLOAD,2024-02-27 07:47:59,15.08834894,0.0001191,53.2147,282.2386,85.1162,274.9966,0.00024488,3.611e-05,0.0,0 STARLINK-4136,1 53260U 22086U   24058.32498889  .00003611  00000-0  24488-3 0  9994,2 53260  53.2147 282.2386 0001191  85.1162 274.9966 15.08834894 88960,6917.896,95.438,540.585,538.937,0.0
53260.0,STARLINK-4136,PAYLOAD,2024-02-27 22:06:27,15.08836148,0.0001232,53.215,279.5622,82.8144,277.2988,8.7621e-05,1.107e-05,0.0,0 STARLINK-4136,1 53260U 22086U   24058.92115147  .00001107  00000-0  87621-4 0  9990,2 53260  53.2150 279.5622 0001232  82.8144 277.2988 15.08836148 89231,6917.892,95.438,540.609,538.905,0.0
53260.0,STARLINK-4136,PAYLOAD,2024-02-28 01:17:13,15.08840041,0.0001338,53.2145,278.9668,83.9482,276.1662,0.00011053,1.472e-05,0.0,0 STARLINK-4136,1 53260U 22086U   24059.05363062  .00001472  00000-0  11053-3 0  9996,2 53260  53.2145 278.9668 0001338  83.9482 276.1662 15.08840041 89258,6917.88,95.438,540.671,538.82,0.0
53260.0,STARLINK-4136,PAYLOAD,2024-02-28 20:21:51,15.08841227,0.0001256,53.2147,275.3981,78.2125,281.9008,0.00023104,3.391e-05,0.0,0 STARLINK-4136,1 53260U 22086U   24059.84851290  .00003391  00000-0  23104-3 0  9990,2 53260  53.2147 275.3981 0001256  78.2125 281.9008 15.08841227 89197,6917.877,95.437,540.611,538.873,0.0
53260.0,STARLINK-4136,PAYLOAD,2024-02-28 21:57:14,15.08842317,0.0001314,53.215,275.1009,74.8241,285.2896,0.0002494,3.684e-05,0.0,0 STARLINK-4136,1 53260U 22086U   24059.91475285  .00003684  00000-0  24940-3 0  9998,2 53260  53.2150 275.1009 0001314  74.8241 285.2896 15.08842317 89380,6917.873,95.437,540.647,538.829,0.0
53260.0,STARLINK-4136,PAYLOAD,2024-02-29 13:51:06,15.08842291,0.0001209,53.2155,272.127,85.6503,274.4627,0.00018406,2.643e-05,0.0,0 STARLINK-4136,1 53260U 22086U   24060.57715279  .00002643  00000-0  18406-3 0  9996,2 53260  53.2155 272.1270 0001209  85.6503 274.4627 15.08842291 89480,6917.873,95.437,540.575,538.902,0.0
53260.0,STARLINK-4136,PAYLOAD,2024-02-29 20:12:38,15.08848776,0.0001246,53.2149,270.9379,85.5541,274.5593,0.00028233,4.209e-05,0.0,0 STARLINK-4136,1 53260U 22086U   24060.84211025  .00004209  00000-0  28233-3 0  9995,2 53260  53.2149 270.9379 0001246  85.5541 274.5593 15.08848776 89523,6917.854,95.437,540.581,538.857,0.0
53260.0,STARLINK-4136,PAYLOAD,2024-02-29 23:23:24,15.08851444,0.0001237,53.2143,270.3422,87.5247,272.5887,0.0002889,4.314e-05,0.0,0 STARLINK-4136,1 53260U 22086U   24060.97458819  .00004314  00000-0  28890-3 0  9999,2 53260  53.2143 270.3422 0001237  87.5247 272.5887 15.08851444 89367,6917.845,95.437,540.566,538.855,0.0
53260.0,STARLINK-4136,PAYLOAD,2024-03-01 13:41:52,15.08842119,9.57e-05,53.2153,267.6658,82.6319,277.4782,0.00011944,1.614e-05,0.0,0 STARLINK-4136,1 53260U 22086U   24061.57075119  .00001614  00000-0  11944-3 0  9996,2 53260  53.2153 267.6658 0000957  82.6319 277.4782 15.08842119 89639,6917.874,95.437,540.401,539.077,0.0
53260.0,STARLINK-4136,PAYLOAD,2024-03-01 20:03:25,15.08845743,0.000132,53.2135,266.4757,90.4548,269.6595,0.00013698,1.893e-05,0.0,0 STARLINK-4136,1 53260U 22086U   24061.83570946  .00001893  00000-0  13698-3 0  9990,2 53260  53.2135 266.4757 0001320  90.4548 269.6595 15.08845743 89497,6917.863,95.437,540.641,538.815,0.0
53260.0,STARLINK-4136,PAYLOAD,2024-03-02 19:54:12,15.08847098,0.000132,53.2157,262.0167,90.8464,269.2679,0.00014427,2.009e-05,0.0,0 STARLINK-4136,1 53260U 22086U   24062.82930863  .00002009  00000-0  14427-3 0  9999,2 53260  53.2157 262.0167 0001320  90.8464 269.2679 15.08847098 89820,6917.859,95.437,540.637,538.811,0.0
53260.0,STARLINK-4136,PAYLOAD,2024-03-03 19:44:59,15.08841758,0.0001416,53.2158,257.5557,92.8824,267.2331,9.0943e-05,1.16e-05,0.0,0 STARLINK-4136,1 53260U 22086U   24063.82291040  .00001160  00000-0  90943-4 0  9992,2 53260  53.2158 257.5557 0001416  92.8824 267.2331 15.08841758 89977,6917.875,95.437,540.72,538.76,0.0
53260.0,STARLINK-4136,PAYLOAD,2024-03-04 05:17:18,15.08843626,0.0001414,53.2158,255.7709,93.4472,266.6681,0.00010188,1.334e-05,0.0,0 STARLINK-4136,1 53260U 22086U   24064.22034875  .00001334  00000-0  10188-3 0  9993,2 53260  53.2158 255.7709 0001414  93.4472 266.6681 15.08843626 89854,6917.869,95.437,540.712,538.756,0.0
53260.0,STARLINK-4136,PAYLOAD,2024-03-04 13:14:13,15.08844154,0.0001375,53.2154,254.285,84.5703,275.5446,0.00011093,1.478e-05,0.0,0 STARLINK-4136,1 53260U 22086U   24064.55154777  .00001478  00000-0  11093-3 0  9998,2 53260  53.2154 254.2850 0001375  84.5703 275.5446 15.08844154 90087,6917.868,95.437,540.684,538.781,0.0
53260.0,STARLINK-4136,PAYLOAD,2024-03-04 19:35:45,15.08849058,0.0001381,53.2158,253.0964,86.3311,273.7839,0.00016308,2.309e-05,0.0,0 STARLINK-4136,1 53260U 22086U   24064.81650429  .00002309  00000-0  16308-3 0  9990,2 53260  53.2158 253.0964 0001381  86.3311 273.7839 15.08849058 90125,6917.853,95.437,540.673,538.762,0.0
53260.0,STARLINK-4136,PAYLOAD,2024-03-05 13:05:01,15.08835738,0.0001176,53.2145,249.8272,90.6148,269.4978,-8.5013e-06,-4.23e-06,0.0,0 STARLINK-4136,1 53260U 22086U   24065.54515157 -.00000423  00000-0 -85013-5 0  9997,2 53260  53.2145 249.8272 0001176  90.6148 269.4978 15.08835738 90232,6917.893,95.438,540.572,538.945,0.0
53260.0,STARLINK-4136,PAYLOAD,2024-03-05 17:51:10,15.08836966,0.0001169,53.2145,248.9332,80.9773,279.1351,5.5609e-06,-1.99e-06,0.0,0 STARLINK-4136,1 53260U 22086U   24065.74387161 -.00000199  00000-0  55609-5 0  9998,2 53260  53.2145 248.9332 0001169  80.9773 279.1351 15.08836966 90087,6917.89,95.438,540.563,538.946,0.0
53260.0,STARLINK-4136,PAYLOAD,2024-03-06 04:58:52,15.08837443,0.0001334,53.2159,246.8517,92.7169,267.3976,2.1133e-05,4.8e-07,0.0,0 STARLINK-4136,1 53260U 22086U   24066.20755207  .00000048  00000-0  21133-4 0  9996,2 53260  53.2159 246.8517 0001334  92.7169 267.3976 15.08837443 90339,6917.888,95.438,540.676,538.83,0.0
53260.0,STARLINK-4136,PAYLOAD,2024-03-06 19:17:20,15.08841983,0.0001288,53.2157,244.1749,91.1713,268.9427,7.2624e-05,8.68e-06,0.0,0 STARLINK-4136,1 53260U 22086U   24066.80371162  .00000868  00000-0  72624-4 0  9997,2 53260  53.2157 244.1749 0001288  91.1713 268.9427 15.08841983 90243,6917.874,95.437,540.63,538.848,0.0
53260.0,STARLINK-4136,PAYLOAD,2024-03-07 11:11:12,15.08834303,0.0001266,53.2148,241.2012,89.693,270.4207,0.00014929,2.089e-05,0.0,0 STARLINK-4136,1 53260U 22086U   24067.46611799  .00002089  00000-0  14929-3 0  9993,2 53260  53.2148 241.2012 0001266  89.6930 270.4207 15.08834303 90526,6917.898,95.438,540.639,538.887,0.0
